{
  "type": "FeatureCollection",
  "features": [
    {
      "type": "Feature",
      "properties": {
        "norad_id": 42988,
        "name": "SKYSAT-C10",
        "group": "resource",
        "lat": 48.40915522726885,
        "lon": 113.39607960214443,
        "alt_km": 462.35492475987303,
        "timestamp": "2025-12-16T23:36:35.842496+00:00",
        "meta_object_name": "SKYSAT-C10",
        "meta_object_id": "2017-068B",
        "meta_epoch": "2025-12-16T07:43:21.639072",
        "meta_mean_motion": 15.32140653,
        "meta_eccentricity": 0.00054276,
        "meta_inclination": 97.4255,
        "meta_ra_of_asc_node": 121.1823,
        "meta_arg_of_pericenter": 93.663,
        "meta_mean_anomaly": 266.5232,
        "meta_ephemeris_type": 0,
        "meta_classification_type": "U",
        "meta_norad_cat_id": 42988,
        "meta_element_set_no": 999,
        "meta_rev_at_epoch": 45434,
        "meta_bstar": 0.00028901254,
        "meta_mean_motion_dot": 8.895e-05,
        "meta_mean_motion_ddot": 0,
        "tle_line1": "1 42988U 17068B   25350.32177823  .00008895  00000+0  28901-3 0  9993",
        "tle_line2": "2 42988  97.4255 121.1823 0005427  93.6630 266.5232 15.32140653454344"
      },
      "geometry": {
        "type": "Point",
        "coordinates": [
          113.39607960214443,
          48.40915522726885
        ]
      }
    },
    {
      "type": "Feature",
      "properties": {
        "norad_id": 42989,
        "name": "SKYSAT-C9",
        "group": "resource",
        "lat": -42.16829763501648,
        "lon": 128.04818124015256,
        "alt_km": 467.38788589928936,
        "timestamp": "2025-12-16T23:36:35.842506+00:00",
        "meta_object_name": "SKYSAT-C9",
        "meta_object_id": "2017-068C",
        "meta_epoch": "2025-12-16T08:09:41.576256",
        "meta_mean_motion": 15.36144152,
        "meta_eccentricity": 0.00106141,
        "meta_inclination": 97.4185,
        "meta_ra_of_asc_node": 120.6219,
        "meta_arg_of_pericenter": 76.1554,
        "meta_mean_anomaly": 284.087,
        "meta_ephemeris_type": 0,
        "meta_classification_type": "U",
        "meta_norad_cat_id": 42989,
        "meta_element_set_no": 999,
        "meta_rev_at_epoch": 45463,
        "meta_bstar": 0.00028716954,
        "meta_mean_motion_dot": 0.0001005,
        "meta_mean_motion_ddot": 0,
        "tle_line1": "1 42989U 17068C   25350.34006454  .00010050  00000+0  28717-3 0  9998",
        "tle_line2": "2 42989  97.4185 120.6219 0010614  76.1554 284.0870 15.36144152454632"
      },
      "geometry": {
        "type": "Point",
        "coordinates": [
          128.04818124015256,
          -42.16829763501648
        ]
      }
    },
    {
      "type": "Feature",
      "properties": {
        "norad_id": 42990,
        "name": "SKYSAT-C8",
        "group": "resource",
        "lat": -59.76573428350092,
        "lon": -71.93285574993007,
        "alt_km": 473.9657303386075,
        "timestamp": "2025-12-16T23:36:35.842517+00:00",
        "meta_object_name": "SKYSAT-C8",
        "meta_object_id": "2017-068D",
        "meta_epoch": "2025-12-16T08:27:52.562016",
        "meta_mean_motion": 15.33001727,
        "meta_eccentricity": 0.00013469,
        "meta_inclination": 97.4276,
        "meta_ra_of_asc_node": 120.3683,
        "meta_arg_of_pericenter": 330.402,
        "meta_mean_anomaly": 29.7145,
        "meta_ephemeris_type": 0,
        "meta_classification_type": "U",
        "meta_norad_cat_id": 42990,
        "meta_element_set_no": 999,
        "meta_rev_at_epoch": 45426,
        "meta_bstar": 0.00027650493,
        "meta_mean_motion_dot": 8.736e-05,
        "meta_mean_motion_ddot": 0,
        "tle_line1": "1 42990U 17068D   25350.35269169  .00008736  00000+0  27650-3 0  9998",
        "tle_line2": "2 42990  97.4276 120.3683 0001346 330.4020  29.7145 15.33001727454268"
      },
      "geometry": {
        "type": "Point",
        "coordinates": [
          -71.93285574993007,
          -59.76573428350092
        ]
      }
    },
    {
      "type": "Feature",
      "properties": {
        "norad_id": 42991,
        "name": "SKYSAT-C7",
        "group": "resource",
        "lat": 81.9637436831387,
        "lon": 54.50504646105234,
        "alt_km": 457.45346075029465,
        "timestamp": "2025-12-16T23:36:35.842528+00:00",
        "meta_object_name": "SKYSAT-C7",
        "meta_object_id": "2017-068E",
        "meta_epoch": "2025-12-16T07:33:38.875392",
        "meta_mean_motion": 15.3240312,
        "meta_eccentricity": 0.00074604,
        "meta_inclination": 97.4283,
        "meta_ra_of_asc_node": 121.3686,
        "meta_arg_of_pericenter": 45.8156,
        "meta_mean_anomaly": 314.3698,
        "meta_ephemeris_type": 0,
        "meta_classification_type": "U",
        "meta_norad_cat_id": 42991,
        "meta_element_set_no": 999,
        "meta_rev_at_epoch": 45432,
        "meta_bstar": 0.00027633523,
        "meta_mean_motion_dot": 8.575e-05,
        "meta_mean_motion_ddot": 0,
        "tle_line1": "1 42991U 17068E   25350.31503328  .00008575  00000+0  27634-3 0  9996",
        "tle_line2": "2 42991  97.4283 121.3686 0007460  45.8156 314.3698 15.32403120454326"
      },
      "geometry": {
        "type": "Point",
        "coordinates": [
          54.50504646105234,
          81.9637436831387
        ]
      }
    },
    {
      "type": "Feature",
      "properties": {
        "norad_id": 42992,
        "name": "SKYSAT-C6",
        "group": "resource",
        "lat": -11.097631244029262,
        "lon": -58.99239107321755,
        "alt_km": 477.32186748520144,
        "timestamp": "2025-12-16T23:36:35.842538+00:00",
        "meta_object_name": "SKYSAT-C6",
        "meta_object_id": "2017-068F",
        "meta_epoch": "2025-12-16T08:39:59.252544",
        "meta_mean_motion": 15.31565277,
        "meta_eccentricity": 0.0005099,
        "meta_inclination": 97.4316,
        "meta_ra_of_asc_node": 121.8505,
        "meta_arg_of_pericenter": 72.5424,
        "meta_mean_anomaly": 287.6374,
        "meta_ephemeris_type": 0,
        "meta_classification_type": "U",
        "meta_norad_cat_id": 42992,
        "meta_element_set_no": 999,
        "meta_rev_at_epoch": 45431,
        "meta_bstar": 0.00027627105,
        "meta_mean_motion_dot": 8.347e-05,
        "meta_mean_motion_ddot": 0,
        "tle_line1": "1 42992U 17068F   25350.36110246  .00008347  00000+0  27627-3 0  9994",
        "tle_line2": "2 42992  97.4316 121.8505 0005099  72.5424 287.6374 15.31565277454313"
      },
      "geometry": {
        "type": "Point",
        "coordinates": [
          -58.99239107321755,
          -11.097631244029262
        ]
      }
    },
    {
      "type": "Feature",
      "properties": {
        "norad_id": 43111,
        "name": "CARTOSAT-2F",
        "group": "resource",
        "lat": 67.96403771928068,
        "lon": -112.63211057412683,
        "alt_km": 500.5854101137238,
        "timestamp": "2025-12-16T23:36:35.842548+00:00",
        "meta_object_name": "CARTOSAT-2F",
        "meta_object_id": "2018-004A",
        "meta_epoch": "2025-12-16T07:19:03.127584",
        "meta_mean_motion": 15.19315576,
        "meta_eccentricity": 0.00012194,
        "meta_inclination": 97.4321,
        "meta_ra_of_asc_node": 47.8851,
        "meta_arg_of_pericenter": 145.2644,
        "meta_mean_anomaly": 214.867,
        "meta_ephemeris_type": 0,
        "meta_classification_type": "U",
        "meta_norad_cat_id": 43111,
        "meta_element_set_no": 999,
        "meta_rev_at_epoch": 43956,
        "meta_bstar": 0.00024754244,
        "meta_mean_motion_dot": 5.16e-05,
        "meta_mean_motion_ddot": 0,
        "tle_line1": "1 43111U 18004A   25350.30489731  .00005160  00000+0  24754-3 0  9999",
        "tle_line2": "2 43111  97.4321  47.8851 0001219 145.2644 214.8670 15.19315576439568"
      },
      "geometry": {
        "type": "Point",
        "coordinates": [
          -112.63211057412683,
          67.96403771928068
        ]
      }
    },
    {
      "type": "Feature",
      "properties": {
        "norad_id": 43259,
        "name": "GAOFEN-1 02",
        "group": "resource",
        "lat": -55.959258851141186,
        "lon": 60.915159503346665,
        "alt_km": 647.9723092860895,
        "timestamp": "2025-12-16T23:36:35.842559+00:00",
        "meta_object_name": "GAOFEN-1 02",
        "meta_object_id": "2018-031A",
        "meta_epoch": "2025-12-16T07:36:05.865984",
        "meta_mean_motion": 14.76422633,
        "meta_eccentricity": 0.00019413,
        "meta_inclination": 98.0807,
        "meta_ra_of_asc_node": 48.1075,
        "meta_arg_of_pericenter": 203.7986,
        "meta_mean_anomaly": 156.3134,
        "meta_ephemeris_type": 0,
        "meta_classification_type": "U",
        "meta_norad_cat_id": 43259,
        "meta_element_set_no": 999,
        "meta_rev_at_epoch": 41571,
        "meta_bstar": 8.3232253e-05,
        "meta_mean_motion_dot": 5.27e-06,
        "meta_mean_motion_ddot": 0,
        "tle_line1": "1 43259U 18031A   25350.31673456  .00000527  00000+0  83232-4 0  9991",
        "tle_line2": "2 43259  98.0807  48.1075 0001941 203.7986 156.3134 14.76422633415711"
      },
      "geometry": {
        "type": "Point",
        "coordinates": [
          60.915159503346665,
          -55.959258851141186
        ]
      }
    }
  ]
}